[{"OBJECT_NAME":"ONEWEB-0450","OBJECT_ID":"2021-132AM","EPOCH":"2026-03-09T17:09:03.567168","MEAN_MOTION":13.18686652,"ECCENTRICITY":0.00019502,"INCLINATION":87.9243,"RA_OF_ASC_NODE":355.2212,"ARG_OF_PERICENTER":86.486,"MEAN_ANOMALY":273.6495,"EPHEMERIS_TYPE":0,"CLASSIFICATION_TYPE":"U","NORAD_CAT_ID":50504,"ELEMENT_SET_NO":999,"REV_AT_EPOCH":20849,"BSTAR":0.00020393995,"MEAN_MOTION_DOT":9.3e-7,"MEAN_MOTION_DDOT":0},{"OBJECT_NAME":"THORAD DELTA 1 DEB","OBJECT_ID":"1974-089EA","EPOCH":"2026-03-09T22:00:22.142016","MEAN_MOTION":12.63442209,"ECCENTRICITY":0.02975435,"INCLINATION":102.0238,"RA_OF_ASC_NODE":47.8705,"ARG_OF_PERICENTER":67.7533,"MEAN_ANOMALY":350.7138,"EPHEMERIS_TYPE":0,"CLASSIFICATION_TYPE":"U","NORAD_CAT_ID":9795,"ELEMENT_SET_NO":999,"REV_AT_EPOCH":36005,"BSTAR":0.0015965533,"MEAN_MOTION_DOT":2.98e-6,"MEAN_MOTION_DDOT":0}]
